{"type": "FeatureCollection", "features": [ {"type": "Feature", "properties": {"norad_id": 33153, "name": "INTELSAT 25 (IS-25)", "group": "intelsat", "lat": -2.1646103111643846, "lon": 7.918393803012715, "alt_km": 35789.59367915008, "timestamp": "2025-12-20T20:38:44.111531+00:00", "meta": {"OBJECT_NAME": "INTELSAT 25 (IS-25)", "OBJECT_ID": "2008-034A", "EPOCH": "2025-12-20T11:22:04.312992", "MEAN_MOTION": 1.00270047, "ECCENTRICITY": 0.00047991, "INCLINATION": 2.2464, "RA_OF_ASC_NODE": 82.5669, "ARG_OF_PERICENTER": 187.6673, "MEAN_ANOMALY": 318.0792, "EPHEMERIS_TYPE": 0, "CLASSIFICATION_TYPE": "U", "NORAD_CAT_ID": 33153, "ELEMENT_SET_NO": 999, "REV_AT_EPOCH": 6390, "BSTAR": 0, "MEAN_MOTION_DOT": -2.02e-06, "MEAN_MOTION_DDOT": 0}, "tle": {"line1": "1 33153U 08034A   25354.47366103 -.00000202  00000+0  00000+0 0  9992", "line2": "2 33153   2.2464  82.5669 0004799 187.6673 318.0792  1.00270047 63907"}}, "geometry": {"type": "Point", "coordinates": [7.918393803012715, -2.1646103111643846]}}, {"type": "Feature", "properties": {"norad_id": 33376, "name": "GALAXY 19 (G-19)", "group": "intelsat", "lat": -0.014710372870132885, "lon": -57.623728417125164, "alt_km": 35776.78749816594, "timestamp": "2025-12-20T20:38:44.111543+00:00", "meta": {"OBJECT_NAME": "GALAXY 19 (G-19)", "OBJECT_ID": "2008-045A", "EPOCH": "2025-12-20T11:54:28.451232", "MEAN_MOTION": 1.00271451, "ECCENTRICITY": 0.00025199, "INCLINATION": 0.0143, "RA_OF_ASC_NODE": 306.9474, "ARG_OF_PERICENTER": 327.2001, "MEAN_ANOMALY": 256.8006, "EPHEMERIS_TYPE": 0, "CLASSIFICATION_TYPE": "U", "NORAD_CAT_ID": 33376, "ELEMENT_SET_NO": 999, "REV_AT_EPOCH": 6311, "BSTAR": 0, "MEAN_MOTION_DOT": -1.15e-06, "MEAN_MOTION_DDOT": 0}, "tle": {"line1": "1 33376U 08045A   25354.49616263 -.00000115  00000+0  00000+0 0  9991", "line2": "2 33376   0.0143 306.9474 0002519 327.2001 256.8006  1.00271451 63116"}}, "geometry": {"type": "Point", "coordinates": [-57.623728417125164, -0.014710372870132885]}}, {"type": "Feature", "properties": {"norad_id": 35493, "name": "FM-5", "group": "intelsat", "lat": -0.00394654673747142, "lon": -46.790043296378585, "alt_km": 35797.003309013635, "timestamp": "2025-12-20T20:38:44.111555+00:00", "meta": {"OBJECT_NAME": "FM-5", "OBJECT_ID": "2009-034A", "EPOCH": "2025-12-20T11:23:10.391712", "MEAN_MOTION": 1.00258882, "ECCENTRICITY": 0.0001816, "INCLINATION": 0.0239, "RA_OF_ASC_NODE": 289.6726, "ARG_OF_PERICENTER": 221.3816, "MEAN_ANOMALY": 22.9059, "EPHEMERIS_TYPE": 0, "CLASSIFICATION_TYPE": "U", "NORAD_CAT_ID": 35493, "ELEMENT_SET_NO": 999, "REV_AT_EPOCH": 4485, "BSTAR": 0, "MEAN_MOTION_DOT": -1.75e-06, "MEAN_MOTION_DDOT": 0}, "tle": {"line1": "1 35493U 09034A   25354.47442583 -.00000175  00000+0  00000+0 0  9998", "line2": "2 35493   0.0239 289.6726 0001816 221.3816  22.9059  1.00258882 44851"}}, "geometry": {"type": "Point", "coordinates": [-46.790043296378585, -0.00394654673747142]}}, {"type": "Feature", "properties": {"norad_id": 36097, "name": "INTELSAT 14 (IS-14)", "group": "intelsat", "lat": -0.0048111042300047245, "lon": -5.601341277791723, "alt_km": 35783.46889007104, "timestamp": "2025-12-20T20:38:44.111566+00:00", "meta": {"OBJECT_NAME": "INTELSAT 14 (IS-14)", "OBJECT_ID": "2009-064A", "EPOCH": "2025-12-20T11:18:04.696416", "MEAN_MOTION": 1.00270925, "ECCENTRICITY": 0.00024525, "INCLINATION": 0.011, "RA_OF_ASC_NODE": 4.339, "ARG_OF_PERICENTER": 276.3609, "MEAN_ANOMALY": 293.1341, "EPHEMERIS_TYPE": 0, "CLASSIFICATION_TYPE": "U", "NORAD_CAT_ID": 36097, "ELEMENT_SET_NO": 999, "REV_AT_EPOCH": 5881, "BSTAR": 0, "MEAN_MOTION_DOT": -2.5e-06, "MEAN_MOTION_DDOT": 0}, "tle": {"line1": "1 36097U 09064A   25354.47088769 -.00000250  00000+0  00000+0 0  9998", "line2": "2 36097   0.0110   4.3390 0002452 276.3609 293.1341  1.00270925 58815"}}, "geometry": {"type": "Point", "coordinates": [-5.601341277791723, -0.0048111042300047245]}}, {"type": "Feature", "properties": {"norad_id": 36106, "name": "INTELSAT 15 (IS-15)", "group": "intelsat", "lat": 0.03132894800834948, "lon": 124.51483823217453, "alt_km": 35794.26139648227, "timestamp": "2025-12-20T20:38:44.111578+00:00", "meta": {"OBJECT_NAME": "INTELSAT 15 (IS-15)", "OBJECT_ID": "2009-067A", "EPOCH": "2025-12-20T08:29:50.808192", "MEAN_MOTION": 1.00272009, "ECCENTRICITY": 0.00021321, "INCLINATION": 0.0088, "RA_OF_ASC_NODE": 26.4946, "ARG_OF_PERICENTER": 253.5637, "MEAN_ANOMALY": 21.7545, "EPHEMERIS_TYPE": 0, "CLASSIFICATION_TYPE": "U", "NORAD_CAT_ID": 36106, "ELEMENT_SET_NO": 999, "REV_AT_EPOCH": 3943, "BSTAR": 0, "MEAN_MOTION_DOT": -1.62e-06, "MEAN_MOTION_DDOT": 0}, "tle": {"line1": "1 36106U 09067A   25354.35406028 -.00000162  00000+0  00000+0 0  9993", "line2": "2 36106   0.0088  26.4946 0002132 253.5637  21.7545  1.00272009 39438"}}, "geometry": {"type": "Point", "coordinates": [124.51483823217453, 0.03132894800834948]}}, {"type": "Feature", "properties": {"norad_id": 36131, "name": "DIRECTV 12", "group": "intelsat", "lat": -0.028067172013933054, "lon": -63.3439944095602, "alt_km": 35783.18914865741, "timestamp": "2025-12-20T20:38:44.111590+00:00", "meta": {"OBJECT_NAME": "DIRECTV 12", "OBJECT_ID": "2009-075A", "EPOCH": "2025-12-20T12:06:43.360992", "MEAN_MOTION": 1.00275526, "ECCENTRICITY": 5.064e-05, "INCLINATION": 0.0134, "RA_OF_ASC_NODE": 57.4464, "ARG_OF_PERICENTER": 268.8941, "MEAN_ANOMALY": 201.9691, "EPHEMERIS_TYPE": 0, "CLASSIFICATION_TYPE": "U", "NORAD_CAT_ID": 36131, "ELEMENT_SET_NO": 999, "REV_AT_EPOCH": 4476, "BSTAR": 0, "MEAN_MOTION_DOT": -8.1e-07, "MEAN_MOTION_DDOT": 0}, "tle": {"line1": "1 36131U 09075A   25354.50466853 -.00000081  00000+0  00000+0 0  9999", "line2": "2 36131   0.0134  57.4464 0000506 268.8941 201.9691  1.00275526 44760"}}, "geometry": {"type": "Point", "coordinates": [-63.3439944095602, -0.028067172013933054]}}, {"type": "Feature", "properties": {"norad_id": 36397, "name": "INTELSAT 16 (IS-16)", "group": "intelsat", "lat": -0.017100459186382224, "lon": -36.79674933295701, "alt_km": 35778.552674633676, "timestamp": "2025-12-20T20:38:44.111602+00:00", "meta": {"OBJECT_NAME": "INTELSAT 16 (IS-16)", "OBJECT_ID": "2010-006A", "EPOCH": "2025-12-20T11:26:34.478880", "MEAN_MOTION": 1.00277419, "ECCENTRICITY": 0.00021478, "INCLINATION": 0.0116, "RA_OF_ASC_NODE": 344.1839, "ARG_OF_PERICENTER": 290.2193, "MEAN_ANOMALY": 270.3649, "EPHEMERIS_TYPE": 0, "CLASSIFICATION_TYPE": "U", "NORAD_CAT_ID": 36397, "ELEMENT_SET_NO": 999, "REV_AT_EPOCH": 5786, "BSTAR": 0, "MEAN_MOTION_DOT": -2.21e-06, "MEAN_MOTION_DDOT": 0}, "tle": {"line1": "1 36397U 10006A   25354.47678795 -.00000221  00000+0  00000+0 0  9991", "line2": "2 36397   0.0116 344.1839 0002147 290.2193 270.3649  1.00277419 57868"}}, "geometry": {"type": "Point", "coordinates": [-36.79674933295701, -0.017100459186382224]}}, {"type": "Feature", "properties": {"norad_id": 37185, "name": "XM-5", "group": "intelsat", "lat": -0.009741350096534181, "lon": -75.78741501926213, "alt_km": 35788.54964823132, "timestamp": "2025-12-20T20:38:44.111613+00:00", "meta": {"OBJECT_NAME": "XM-5", "OBJECT_ID": "2010-053A", "EPOCH": "2025-12-20T11:05:14.664192", "MEAN_MOTION": 1.00280251, "ECCENTRICITY": 0.00020369, "INCLINATION": 0.0654, "RA_OF_ASC_NODE": 270.4731, "ARG_OF_PERICENTER": 249.3201, "MEAN_ANOMALY": 340.6321, "EPHEMERIS_TYPE": 0, "CLASSIFICATION_TYPE": "U", "NORAD_CAT_ID": 37185, "ELEMENT_SET_NO": 999, "REV_AT_EPOCH": 5569, "BSTAR": 0, "MEAN_MOTION_DOT": -1e-08, "MEAN_MOTION_DDOT": 0}, "tle": {"line1": "1 37185U 10053A   25354.46197528 -.00000001  00000+0  00000+0 0  9994", "line2": "2 37185   0.0654 270.4731 0002036 249.3201 340.6321  1.00280251 55690"}}, "geometry": {"type": "Point", "coordinates": [-75.78741501926213, -0.009741350096534181]}}, {"type": "Feature", "properties": {"norad_id": 37238, "name": "INTELSAT 17 (IS-17)", "group": "intelsat", "lat": 0.03587986336093067, "lon": 105.33853790331408, "alt_km": 35798.00440835074, "timestamp": "2025-12-20T20:38:44.111625+00:00", "meta": {"OBJECT_NAME": "INTELSAT 17 (IS-17)", "OBJECT_ID": "2010-065B", "EPOCH": "2025-12-20T13:03:16.843680", "MEAN_MOTION": 1.00271443, "ECCENTRICITY": 0.00028105, "INCLINATION": 0.03, "RA_OF_ASC_NODE": 68.8387, "ARG_OF_PERICENTER": 221.9442, "MEAN_ANOMALY": 60.3868, "EPHEMERIS_TYPE": 0, "CLASSIFICATION_TYPE": "U", "NORAD_CAT_ID": 37238, "ELEMENT_SET_NO": 999, "REV_AT_EPOCH": 5145, "BSTAR": 0, "MEAN_MOTION_DOT": 0, "MEAN_MOTION_DDOT": 0}, "tle": {"line1": "1 37238U 10065B   25354.54394495  .00000000  00000+0  00000+0 0  9995", "line2": "2 37238   0.0300  68.8387 0002810 221.9442  60.3868  1.00271443 51451"}}, "geometry": {"type": "Point", "coordinates": [105.33853790331408, 0.03587986336093067]}}, {"type": "Feature", "properties": {"norad_id": 37392, "name": "INTELSAT 28 (IS-28)", "group": "intelsat", "lat": -1.3077024947633502, "lon": 7.713197759677526, "alt_km": 35788.16315233987, "timestamp": "2025-12-20T20:38:44.111636+00:00", "meta": {"OBJECT_NAME": "INTELSAT 28 (IS-28)", "OBJECT_ID": "2011-016A", "EPOCH": "2025-12-20T06:13:56.324352", "MEAN_MOTION": 1.00269977, "ECCENTRICITY": 0.00036834, "INCLINATION": 1.3429, "RA_OF_ASC_NODE": 84.976, "ARG_OF_PERICENTER": 187.7654, "MEAN_ANOMALY": 238.1459, "EPHEMERIS_TYPE": 0, "CLASSIFICATION_TYPE": "U", "NORAD_CAT_ID": 37392, "ELEMENT_SET_NO": 999, "REV_AT_EPOCH": 5149, "BSTAR": 0, "MEAN_MOTION_DOT": -2.02e-06, "MEAN_MOTION_DDOT": 0}, "tle": {"line1": "1 37392U 11016A   25354.25967968 -.00000202  00000+0  00000+0 0  9997", "line2": "2 37392   1.3429  84.9760 0003683 187.7654 238.1459  1.00269977 51499"}}, "geometry": {"type": "Point", "coordinates": [7.713197759677526, -1.3077024947633502]}}]}